LDPE-1                  
1 49818U 21118B   26117.18586347 -.00000176  00000+0  00000+0 0  9995
2 49818   5.5619  63.5197 0000977 291.9092 227.7392  0.98983311 16139
EXPRESS AMU-7           
1 50001U 21123A   26117.28717536 -.00000252  00000+0  00000+0 0  9999
2 50001   0.0185 257.6522 0000508  42.9735 163.0401  1.00271911 16031
EXPRESS AMU-3           
1 50002U 21123B   26116.11901272 -.00000335  00000+0  00000+0 0  9995
2 50002   0.0217 265.7413 0000307  38.4559  55.7912  1.00271425  6514
TIANLIAN 2-02           
1 50005U 21124A   26116.31393436 -.00000026  00000+0  00000+0 0  9995
2 50005   0.6686  86.8391 0003050 220.8555 190.5891  1.00271985 16102
TURKSAT 5B              
1 50212U 21126A   26117.20044858  .00000136  00000+0  00000+0 0  9998
2 50212   0.0719 346.7106 0004564   1.2564 341.3825  1.00272800 15780
INMARSAT 6-F1           
1 50319U 21128A   26117.00967458 -.00000183  00000+0  00000+0 0  9999
2 50319   0.0165 255.3346 0000090 297.4412 109.4662  1.00272930 15747
SHIYAN-12 01 (SY-12 01) 
1 50321U 21129A   26116.75821367 -.00000291  00000+0  00000+0 0  9992
2 50321   3.5439  80.5813 0003201 274.1080 235.0544  1.00063277 15982
SHIYAN-12 02 (SY-12 02) 
1 50322U 21129B   26116.64634644  .00000083  00000+0  00000+0 0  9999
2 50322   3.5436  80.5962 0000848  29.9516  25.9033  1.00472680 15980
TJS-9                   
1 50574U 21135A   26117.26002784 -.00000309  00000+0  00000+0 0  9990
2 50574   0.0194 316.6619 0003969 117.3182  12.1117  1.00270897 15912
GOES 18                 
1 51850U 22021A   26116.96599441  .00000000  00000+0  00000+0 0  9997
2 51850   0.0104  83.6605 0000668   3.3583 338.7000  1.00271663  6076
ZHONGXING-6D            
1 52255U 22038A   26116.05791476 -.00000367  00000+0  00000+0 0  9994
2 52255   0.0191 243.0152 0001547 100.0281  16.9429  1.00270649 14902
NILESAT 301             
1 52817U 22061A   26117.22822620 -.00000067  00000+0  00000+0 0  9997
2 52817   0.0613  40.8793 0005904 340.2941 269.2277  1.00272961 14229
CMS-02 (GSAT-24)        
1 52903U 22067A   26117.00958792 -.00000176  00000+0  00000+0 0  9996
2 52903   0.0127 208.2142 0002210 140.6895 312.5842  1.00270808 14093
MEASAT 3D               
1 52904U 22067B   26117.20233531 -.00000252  00000+0  00000+0 0  9991
2 52904   0.0470  43.1455 0002290 323.5932  12.8031  1.00270733 14132
SES-22                  
1 52933U 22071A   26117.16850116  .00000094  00000+0  00000+0 0  9990
2 52933   0.0203 273.6155 0001028 119.2051 103.9973  1.00274145  7012
WFOV (USA 332)          
1 52940U 22073A   26116.94545433 -.00000370  00000+0  00000+0 0  9996
2 52940   3.5816  79.1598 0002091 244.3227 351.0838  1.00273133 13855
TIANLIAN 2-03           
1 53100U 22078A   26117.21711356  .00000062  00000+0  00000+0 0  9997
2 53100   0.5419  75.5321 0002485 286.7514 301.6583  1.00272882 14039
